ION SCV-004             
1 50993U 22002K   26068.68892644  .00006538  00000+0  23198-3 0  9998
2 50993  97.2961 128.2294 0007216   1.6783 358.4480 15.29369331230088
STARLINK-31932          
1 59929U 24106H   26068.33334491  .00005463  00000+0  20791-3 0  9998
2 59929  43.0026 331.3327 0001588 281.5974  95.7698 15.27579229  5773
