[{"OBJECT_NAME":"ION SCV-004","OBJECT_ID":"2022-002K","EPOCH":"2026-03-09T16:32:03.244416","MEAN_MOTION":15.29369331,"ECCENTRICITY":0.00072157,"INCLINATION":97.2961,"RA_OF_ASC_NODE":128.2294,"ARG_OF_PERICENTER":1.6783,"MEAN_ANOMALY":358.448,"EPHEMERIS_TYPE":0,"CLASSIFICATION_TYPE":"U","NORAD_CAT_ID":50993,"ELEMENT_SET_NO":999,"REV_AT_EPOCH":23008,"BSTAR":0.00023198467,"MEAN_MOTION_DOT":6.538e-5,"MEAN_MOTION_DDOT":0},{"OBJECT_NAME":"STARLINK-31932","OBJECT_ID":"2024-106H","EPOCH":"2026-03-09T08:00:01.000224","MEAN_MOTION":15.27579229,"ECCENTRICITY":0.00015889,"INCLINATION":43.0026,"RA_OF_ASC_NODE":331.3327,"ARG_OF_PERICENTER":281.5974,"MEAN_ANOMALY":95.7698,"EPHEMERIS_TYPE":0,"CLASSIFICATION_TYPE":"U","NORAD_CAT_ID":59929,"ELEMENT_SET_NO":999,"REV_AT_EPOCH":577,"BSTAR":0.00020791125,"MEAN_MOTION_DOT":5.463e-5,"MEAN_MOTION_DDOT":0}]
